[{"OBJECT_NAME":"YAOGAN-39 02B","OBJECT_ID":"2023-145D","EPOCH":"2026-03-09T14:23:58.847424","MEAN_MOTION":15.16715423,"ECCENTRICITY":0.0004349,"INCLINATION":34.9899,"RA_OF_ASC_NODE":125.1097,"ARG_OF_PERICENTER":240.3858,"MEAN_ANOMALY":119.6421,"EPHEMERIS_TYPE":0,"CLASSIFICATION_TYPE":"U","NORAD_CAT_ID":57889,"ELEMENT_SET_NO":999,"REV_AT_EPOCH":13775,"BSTAR":0.00040419,"MEAN_MOTION_DOT":8.082e-5,"MEAN_MOTION_DDOT":0},{"OBJECT_NAME":"FOSSASAT-2E22","OBJECT_ID":"2025-276DU","EPOCH":"2026-03-09T17:31:32.157120","MEAN_MOTION":15.17702542,"ECCENTRICITY":0.00067992,"INCLINATION":97.4248,"RA_OF_ASC_NODE":143.8392,"ARG_OF_PERICENTER":122.1987,"MEAN_ANOMALY":237.9907,"EPHEMERIS_TYPE":0,"CLASSIFICATION_TYPE":"U","NORAD_CAT_ID":66779,"ELEMENT_SET_NO":999,"REV_AT_EPOCH":1531,"BSTAR":0.00072006119,"MEAN_MOTION_DOT":0.00014475,"MEAN_MOTION_DDOT":0}]
